CALSPHERE 1             
1 00900U 64063C   24107.86114581  .00001547  00000+0  16102-2 0  9994
2 00900  90.2030  54.0633 0025784 159.7369 255.0831 13.74909636962607
CALSPHERE 2
1 00902U 64063E   24107.85994532  .00000125  00000+0  17490-3 0  9990
2 00902  90.2180  57.6252 0018859  11.0562  47.2142 13.52790436749275
LCS 1
1 01361U 65034C   24107.50415716  .00000005  00000+0 -46848-3 0  9990
2 01361  32.1403 256.7584 0005213 169.2122 190.8488  9.89305034131483
TEMPSAT 1
1 01512U 65065E   24107.79619920  .00000073  00000+0  12861-3 0  9998
2 01512  89.9558 214.3327 0068182 311.9377 173.9937 13.33509600854571
CALSPHERE 4A
1 01520U 65065H   24108.06588955  .00000198  00000+0  36404-3 0  9998
2 01520  89.9456 128.3715 0069443 173.8493 211.3860 13.36049859857479
OPS 5712 (P/L 160)
1 02826U 67053A   24107.91115100  .00014656  00000+0  31824-2 0  9992
2 02826  69.9246 150.6259 0002919 185.4112 174.6995 14.58160340950026
LES-5
1 02866U 67066E   24107.59188144 -.00000073  00000+0  00000+0 0  9990
2 02866   0.9625 143.9015 0054268 153.0135 318.0351  1.09425335122370
SURCAL 159
1 02872U 67053F   24107.84659366  .00000369  00000+0  29124-3 0  9999
2 02872  69.9734 264.3589 0004193  58.2655 301.8860 13.99179350899496
OPS 5712 (P/L 153)
1 02874U 67053H   24107.92522570  .00000161  00000+0  15496-3 0  9993
2 02874  69.9767  11.0139 0006354 165.0556 195.0739 13.96569877896297
SURCAL 150B
1 02909U 67053J   24108.15472208  .00042307  00000+0  57898-2 0  9999
2 02909  69.9401 100.2742 0004590 235.6311 124.4404 14.78276602962500
OPS 3811 (DSP 2)
1 05204U 71039A   24107.87672137 -.00000122  00000+0  00000+0 0  9990
2 05204   1.8191 283.1748 0020420   1.1288 181.8113  0.98161364198463
RIGIDSPHERE 2 (LCS 4)
1 05398U 71067E   24108.19549558  .00001936  00000+0  65234-3 0  9998
2 05398  87.6321 198.0028 0060297 335.7852  24.0513 14.35610270760523
OSCAR 7 (AO-7)
1 07530U 74089B   24107.94027275 -.00000018  00000+0  17786-3 0  9994
2 07530 101.9777 102.0179 0012064 199.7955 215.5874 12.53674136261602
STARLETTE
1 07646U 75010A   24107.91532000 -.00000121  00000+0  16673-4 0  9991
2 07646  49.8263 347.8521 0205723 329.0754  29.8156 13.82326810485086
LAGEOS 1
1 08820U 76039A   24107.36143243  .00000028  00000+0  00000+0 0  9991
2 08820 109.8441 268.0893 0044344 112.2041 274.1782  6.38664878862578
OPS 8701 (DSP 10)
1 13086U 82019A   24107.78489247 -.00000124  00000+0  00000+0 0  9997
2 13086  10.9024 315.1380 0001793 262.0210 115.0160  0.98190263 17897
PHASE 3B (AO-10)
1 14129U 83058B   24107.70408709 -.00000587  00000+0  00000+0 0  9999
2 14129  27.4589 348.8222 6034428 261.0738  30.2297  2.05871222279175
UOSAT 2 (UO-11)
1 14781U 84021B   24107.90454576  .00003900  00000+0  44810-3 0  9991
2 14781  97.7000  79.0499 0006406 281.9867  78.0631 14.86359865139385
AJISAI (EGS)
1 16908U 86061A   24107.94020583 -.00000098  00000+0 -69256-5 0  9991
2 16908  50.0101  60.4379 0011362 326.7984  63.9386 12.44504895381867
TDRS 3
1 19548U 88091B   24107.52007839 -.00000306  00000+0  00000+0 0  9999
2 19548  13.2109 346.3585 0037858 342.4409  14.5254  1.00279583117427
COSMOS 1989 (ETALON 1)
1 19751U 89001C   24107.38598934  .00000057  00000+0  00000+0 0  9994
2 19751  64.5289  99.3633 0023909 215.8991 192.5573  2.13156252274495
COSMOS 2024 (ETALON 2)
1 20026U 89039C   24107.76415063 -.00000064  00000+0  00000+0 0  9994
2 20026  65.3620 337.6548 0019283 217.4260 143.2943  2.13204498271633
FLTSATCOM 8 (USA 46)
1 20253U 89077A   24107.91959243 -.00000372  00000+0  00000+0 0  9990
2 20253  12.6541 355.9322 0006356  28.5624 277.8566  1.00278556252687
LUSAT (LO-19)
1 20442U 90005G   24107.94126072  .00000597  00000+0  23257-3 0  9993
2 20442  98.8808  96.6081 0011902  11.0009 349.1433 14.33488058789060
HST
1 20580U 90037B   24108.14675951  .00012782  00000+0  62380-3 0  9998
2 20580  28.4697  33.8214 0002605  86.3698 273.7193 15.16756159668016
SKYNET 4C
1 20776U 90079A   24106.93636363  .00000119  00000+0  00000+0 0  9998
2 20776  13.5964 355.2327 0003048  20.0369 199.7285  1.00271475122995
USA 65 (DSP 15)
1 20929U 90095A   24108.23061522 -.00000015  00000+0  00000+0 0  9996
2 20929  14.4991 349.5866 0006500  83.6085  98.6752  0.98396633 17679
TDRS 5
1 21639U 91054B   24105.12757708 -.00000311  00000+0  00000+0 0  9993
2 21639  14.1726 359.5814 0003650 356.3408 185.0386  1.00627395119759
USA 75 (DSP 16)
1 21805U 91080B   24107.29676519  .00000041  00000+0  00000+0 0  9996
2 21805  14.4344 351.2053 0006338  87.1422  95.6288  0.99186088 17859
LAGEOS 2
1 22195U 92070B   24107.26022856 -.00000009  00000+0  00000+0 0  9990
2 22195  52.6730  47.1092 0137603 200.5767 229.2561  6.47293513744152
TDRS 6
1 22314U 93003B   24107.83841519 -.00000301  00000+0  00000+0 0  9993
2 22314  14.1622   2.8639 0008810 142.3711 316.1164  1.00267952114475
SCD 1
1 22490U 93009B   24107.57762429  .00001118  00000+0  25921-3 0  9996
2 22490  24.9707  52.4692 0042666  44.5849 115.9965 14.45222652646436
UFO 2 (USA 95)
1 22787U 93056A   24107.89334267  .00000120  00000+0  00000+0 0  9996
2 22787  11.6404   7.6843 0005468  31.6965 156.4382  1.00275479110720
STELLA
1 22824U 93061B   24107.83052476 -.00000028  00000+0  73753-5 0  9996
2 22824  98.8855 153.1388 0006772  25.5169  68.3106 14.27420999591873
EYESAT A (AO-27)
1 22825U 93061C   24107.91519589  .00000357  00000+0  15446-3 0  9996
2 22825  98.7949 160.0341 0007350 255.7911 104.2455 14.30458424593853
ITAMSAT (IO-26)
1 22826U 93061D   24107.91001831  .00000387  00000+0  16483-3 0  9998
2 22826  98.7897 159.8915 0007998 239.3335 120.7059 14.30835957594130
USA 99 (MILSTAR-1 1)
1 22988U 94009A   24107.30025948 -.00000201  00000+0  00000+0 0  9998
2 22988  16.4162  36.0992 0002807 329.4021 217.4823  1.00270777 25025
RADIO ROSTO (RS-15)
1 23439U 94085A   24107.82919049 -.00000052  00000+0 -26204-3 0  9998
2 23439  64.8137 142.9980 0151815 155.4175 205.4082 11.27576268206671
UFO 4 (USA 108)
1 23467U 95003A   24107.56778801 -.00000029  00000+0  00000+0 0  9995
2 23467   9.7486  15.6644 0002510  45.4567 160.7677  1.00272141107014
AMSC 1
1 23553U 95019A   24108.23639132 -.00000098  00000+0  00000+0 0  9992
2 23553  12.5757  21.7697 0005566 352.9746 168.7588  1.00273074106236
TDRS 7
1 23613U 95035B   24107.88964615 -.00000209  00000+0  00000+0 0  9998
2 23613  13.7082 353.6633 0027925  63.7411 193.3036  1.00272998105216
USA 115 (MILSTAR-1 2)
1 23712U 95060A   24107.30961067 -.00000025  00000+0  00000+0 0  9997
2 23712  13.7797   9.4728 0002717 353.3630 193.4956  1.00272908 24946
POLAR
1 23802U 96013A   24105.74443178  .00000194  00000+0  00000+0 0  9996
2 23802  79.0842 235.2548 5846466 235.9305  54.4583  1.29846883134558
INMARSAT 3-F1
1 23839U 96020A   24107.67057035 -.00000152  00000+0  00000+0 0  9996
2 23839   8.9389  53.3698 0004282 354.4234  27.3180  1.00001847102341
JAS-2 (FO-29)
1 24278U 96046B   24107.82392698  .00000126  00000+0  16536-3 0  9991
2 24278  98.5761  50.5302 0349966 347.3885  11.8665 13.53181448366135
INMARSAT 3-F2
1 24307U 96053A   24107.61968990  .00000079  00000+0  00000+0 0  9995
2 24307   8.0478  61.4894 0007368 347.7952 248.8691  0.99982926101002
INMARSAT 3-F3
1 24674U 96070A   24107.79915137 -.00000363  00000+0  00000+0 0  9992
2 24674   8.5918  56.7114 0004370 330.4141 226.9897  0.99995364 99993
GALAXY 25 (G-25)
1 24812U 97026A   24107.60954417  .00000046  00000+0  00000+0 0  9999
2 24812   5.3841  76.7526 0012018 320.3311  68.9595  0.99093328 98381
NAVSTAR 43 (USA 132)
1 24876U 97035A   24107.45445762  .00000041  00000+0  00000+0 0  9995
2 24876  55.6500 129.5441 0077331  51.8959 308.8499  2.00565610196073
INTELSAT 5 (IS-5)
1 24916U 97046A   24107.62966002 -.00000069  00000+0  00000+0 0  9997
2 24916   8.6703  55.9726 0001406 304.7681 237.3395  1.00271445 97688
FORTE
1 24920U 97047A   24108.12085440  .00000692  00000+0  30636-3 0  9990
2 24920  69.9562 359.8081 0025217 274.9540  84.8702 14.27075923386059
AMC-3 (GE-3)
1 24936U 97050A   24107.87332749 -.00000266  00000+0  00000+0 0  9995
2 24936   6.1971  72.8015 0003136 300.1714  74.9078  1.00270821 44501
USA 134
1 25019U 97065A   24107.32480073 -.00000068  00000+0  00000+0 0  9998
2 25019  11.8382  27.2570 0004166 334.3984 207.9950  1.00275197 25018
NAVSTAR 44 (USA 135)
1 25030U 97067A   24107.37377337 -.00000042  00000+0  00000+0 0  9998
2 25030  55.6147 200.0874 0019754 252.4722 165.6646  1.88437790191777
ORBCOMM FM11
1 25114U 97084C   24107.66294158  .00005342  00000+0  16501-2 0  9994
2 25114  45.0126 251.8468 0007163 223.1475 136.8814 14.42139846379831
ORBCOMM FM06
1 25118U 97084G   24107.67789091  .00005586  00000+0  17105-2 0  9995
2 25118  45.0131 250.6554 0002977 236.2516 138.0542 14.42520840379888
INMARSAT 3-F5
1 25153U 98006B   24107.80534278 -.00000295  00000+0  00000+0 0  9995
2 25153   7.9090  60.6004 0004782 319.0205  61.7303  1.00273896 95965
ORBCOMM FM04
1 25159U 98007C   24108.18214982  .00003225  00000+0  12272-2 0  9993
2 25159 107.9732 344.9059 0044421 270.8321  88.7728 14.32301861363286
CELESTIS-02 & TAURUS R/B
1 25160U 98007D   24107.93502536  .00000315  00000+0  19727-3 0  9992
2 25160 107.9952 175.6452 0060772  44.2060  42.2753 14.21954619358019
NOAA 15
1 25338U 98030A   24108.14652602  .00000579  00000+0  25803-3 0  9993
2 25338  98.5747 136.5336 0011230 138.8575 221.3454 14.26536846348735
TECHSAT 1B (GO-32)
1 25397U 98043D   24107.89838632  .00000350  00000+0  17225-3 0  9998
2 25397  98.9165  73.7261 0001375  24.5794 335.5449 14.24017101338692
ORBCOMM FM19
1 25415U 98046C   24107.54747962  .00004070  00000+0  14477-2 0  9997
2 25415  44.9956  36.9030 0003903 299.3581 230.2024 14.35571274342831
ORBCOMM FM20
1 25416U 98046D   24107.50476757  .00002584  00000+0  94627-3 0  9999
2 25416  44.9962  38.6335 0001532 318.4780  41.5950 14.35087478342925
ORBCOMM FM13
1 25420U 98046H   24107.49282723  .00003725  00000+0  13387-2 0  9991
2 25420  44.9985  42.5262 0005689 301.9974  58.0319 14.35215981341885
ASTRA 2A
1 25462U 98050A   24107.89908618  .00000063  00000+0  00000+0 0  9991
2 25462   5.0934  78.1399 0003270 294.9907 213.2404  1.00270963 38400
